[
  {
    "OBJECT_NAME": "STARLINK-31273",
    "OBJECT_ID": "2024-017W",
    "EPOCH": "2024-02-05T06:00:00.999648",
    "MEAN_MOTION": 15.71853181,
    "ECCENTRICITY": 0.0001303,
    "INCLINATION": 53.1594,
    "RA_OF_ASC_NODE": 159.9406,
    "ARG_OF_PERICENTER": 35.6644,
    "MEAN_ANOMALY": 62.2944,
    "EPHEMERIS_TYPE": 0,
    "CLASSIFICATION_TYPE": "U",
    "NORAD_CAT_ID": 58846,
    "ELEMENT_SET_NO": 999,
    "REV_AT_EPOCH": 305,
    "BSTAR": -0.013937,
    "MEAN_MOTION_DOT": -0.01638579,
    "MEAN_MOTION_DDOT": 0
  },
  {
    "OBJECT_NAME": "STARLINK-31262",
    "OBJECT_ID": "2024-017X",
    "EPOCH": "2024-02-05T06:00:00.999648",
    "MEAN_MOTION": 15.71883664,
    "ECCENTRICITY": 0.0001539,
    "INCLINATION": 53.1587,
    "RA_OF_ASC_NODE": 159.9346,
    "ARG_OF_PERICENTER": 71.6019,
    "MEAN_ANOMALY": 28.9816,
    "EPHEMERIS_TYPE": 0,
    "CLASSIFICATION_TYPE": "U",
    "NORAD_CAT_ID": 58847,
    "ELEMENT_SET_NO": 999,
    "REV_AT_EPOCH": 305,
    "BSTAR": -0.01434,
    "MEAN_MOTION_DOT": -0.01682529,
    "MEAN_MOTION_DDOT": 0
  },
  {
    "OBJECT_NAME": "AAC-AIS-SAT3",
    "OBJECT_ID": "2023-174DH",
    "EPOCH": "2024-02-04T21:31:23.892384",
    "MEAN_MOTION": 15.06093701,
    "ECCENTRICITY": 0.0014329,
    "INCLINATION": 97.4502,
    "RA_OF_ASC_NODE": 111.5074,
    "ARG_OF_PERICENTER": 107.9773,
    "MEAN_ANOMALY": 252.3017,
    "EPHEMERIS_TYPE": 0,
    "CLASSIFICATION_TYPE": "U",
    "NORAD_CAT_ID": 58848,
    "ELEMENT_SET_NO": 999,
    "REV_AT_EPOCH": 1346,
    "BSTAR": 0.00047026,
    "MEAN_MOTION_DOT": 6.829e-05,
    "MEAN_MOTION_DDOT": 0
  },
  {
    "OBJECT_NAME": "2024-018A",
    "OBJECT_ID": "2024-018A",
    "EPOCH": "2024-02-05T03:25:08.527584",
    "MEAN_MOTION": 14.32749443,
    "ECCENTRICITY": 0.0458096,
    "INCLINATION": 58.6909,
    "RA_OF_ASC_NODE": 359.6142,
    "ARG_OF_PERICENTER": 171.6033,
    "MEAN_ANOMALY": 189.3004,
    "EPHEMERIS_TYPE": 0,
    "CLASSIFICATION_TYPE": "U",
    "NORAD_CAT_ID": 58849,
    "ELEMENT_SET_NO": 999,
    "REV_AT_EPOCH": 117,
    "BSTAR": 0.00018569,
    "MEAN_MOTION_DOT": 1.433e-05,
    "MEAN_MOTION_DDOT": 0
  },
  {
    "OBJECT_NAME": "2024-018B",
    "OBJECT_ID": "2024-018B",
    "EPOCH": "2024-02-05T07:11:57.076224",
    "MEAN_MOTION": 14.33429291,
    "ECCENTRICITY": 0.045535,
    "INCLINATION": 58.7039,
    "RA_OF_ASC_NODE": 359.0449,
    "ARG_OF_PERICENTER": 172.2488,
    "MEAN_ANOMALY": 301.5777,
    "EPHEMERIS_TYPE": 0,
    "CLASSIFICATION_TYPE": "U",
    "NORAD_CAT_ID": 58850,
    "ELEMENT_SET_NO": 999,
    "REV_AT_EPOCH": 118,
    "BSTAR": 0.00034253,
    "MEAN_MOTION_DOT": 2.877e-05,
    "MEAN_MOTION_DDOT": 0
  },
  {
    "OBJECT_NAME": "2024-018C",
    "OBJECT_ID": "2024-018C",
    "EPOCH": "2024-02-05T03:14:51.730944",
    "MEAN_MOTION": 14.33999873,
    "ECCENTRICITY": 0.0452241,
    "INCLINATION": 58.688,
    "RA_OF_ASC_NODE": 359.5836,
    "ARG_OF_PERICENTER": 171.5147,
    "MEAN_ANOMALY": 189.3867,
    "EPHEMERIS_TYPE": 0,
    "CLASSIFICATION_TYPE": "U",
    "NORAD_CAT_ID": 58851,
    "ELEMENT_SET_NO": 999,
    "REV_AT_EPOCH": 117,
    "BSTAR": 0.00014002,
    "MEAN_MOTION_DOT": 1.024e-05,
    "MEAN_MOTION_DDOT": 0
  },
  {
    "OBJECT_NAME": "2024-018D",
    "OBJECT_ID": "2024-018D",
    "EPOCH": "2024-02-05T07:17:39.854400",
    "MEAN_MOTION": 14.33906537,
    "ECCENTRICITY": 0.0453646,
    "INCLINATION": 58.679,
    "RA_OF_ASC_NODE": 359.0027,
    "ARG_OF_PERICENTER": 171.2891,
    "MEAN_ANOMALY": 336.3892,
    "EPHEMERIS_TYPE": 0,
    "CLASSIFICATION_TYPE": "U",
    "NORAD_CAT_ID": 58852,
    "ELEMENT_SET_NO": 999,
    "REV_AT_EPOCH": 119,
    "BSTAR": 0.00066666,
    "MEAN_MOTION_DOT": 5.873e-05,
    "MEAN_MOTION_DDOT": 0
  },
  {
    "OBJECT_NAME": "STARLINK-31238",
    "OBJECT_ID": "2024-019A",
    "EPOCH": "2024-02-05T06:00:00.999648",
    "MEAN_MOTION": 15.82845785,
    "ECCENTRICITY": 0.0001767,
    "INCLINATION": 43.006,
    "RA_OF_ASC_NODE": 237.9794,
    "ARG_OF_PERICENTER": 262.7751,
    "MEAN_ANOMALY": 98.5243,
    "EPHEMERIS_TYPE": 0,
    "CLASSIFICATION_TYPE": "U",
    "NORAD_CAT_ID": 58853,
    "ELEMENT_SET_NO": 999,
    "REV_AT_EPOCH": 203,
    "BSTAR": -0.0055225,
    "MEAN_MOTION_DOT": -0.01069486,
    "MEAN_MOTION_DDOT": 0
  },
  {
    "OBJECT_NAME": "STARLINK-31158",
    "OBJECT_ID": "2024-019B",
    "EPOCH": "2024-02-05T06:00:00.999648",
    "MEAN_MOTION": 15.82858141,
    "ECCENTRICITY": 0.000186,
    "INCLINATION": 43.0055,
    "RA_OF_ASC_NODE": 237.971,
    "ARG_OF_PERICENTER": 262.7129,
    "MEAN_ANOMALY": 101.8932,
    "EPHEMERIS_TYPE": 0,
    "CLASSIFICATION_TYPE": "U",
    "NORAD_CAT_ID": 58854,
    "ELEMENT_SET_NO": 999,
    "REV_AT_EPOCH": 214,
    "BSTAR": -0.0056626,
    "MEAN_MOTION_DOT": -0.01113765,
    "MEAN_MOTION_DDOT": 0
  },
  {
    "OBJECT_NAME": "STARLINK-31237",
    "OBJECT_ID": "2024-019C",
    "EPOCH": "2024-02-05T06:00:00.999648",
    "MEAN_MOTION": 15.82851456,
    "ECCENTRICITY": 0.0001747,
    "INCLINATION": 43.0056,
    "RA_OF_ASC_NODE": 237.9751,
    "ARG_OF_PERICENTER": 267.8735,
    "MEAN_ANOMALY": 95.1323,
    "EPHEMERIS_TYPE": 0,
    "CLASSIFICATION_TYPE": "U",
    "NORAD_CAT_ID": 58855,
    "ELEMENT_SET_NO": 999,
    "REV_AT_EPOCH": 224,
    "BSTAR": -0.005593,
    "MEAN_MOTION_DOT": -0.01101077,
    "MEAN_MOTION_DDOT": 0
  },
  {
    "OBJECT_NAME": "STARLINK-31244",
    "OBJECT_ID": "2024-019D",
    "EPOCH": "2024-02-04T22:00:00.999936",
    "MEAN_MOTION": 15.83606279,
    "ECCENTRICITY": 0.0001345,
    "INCLINATION": 43.0056,
    "RA_OF_ASC_NODE": 240.0164,
    "ARG_OF_PERICENTER": 273.5371,
    "MEAN_ANOMALY": 350.3373,
    "EPHEMERIS_TYPE": 0,
    "CLASSIFICATION_TYPE": "U",
    "NORAD_CAT_ID": 58856,
    "ELEMENT_SET_NO": 999,
    "REV_AT_EPOCH": 215,
    "BSTAR": -0.0052524,
    "MEAN_MOTION_DOT": -0.01056381,
    "MEAN_MOTION_DDOT": 0
  },
  {
    "OBJECT_NAME": "STARLINK-31216",
    "OBJECT_ID": "2024-019E",
    "EPOCH": "2024-02-04T22:00:00.999936",
    "MEAN_MOTION": 15.89547312,
    "ECCENTRICITY": 0.0001812,
    "INCLINATION": 43.0052,
    "RA_OF_ASC_NODE": 239.8439,
    "ARG_OF_PERICENTER": 274.1148,
    "MEAN_ANOMALY": 58.4381,
    "EPHEMERIS_TYPE": 0,
    "CLASSIFICATION_TYPE": "U",
    "NORAD_CAT_ID": 58857,
    "ELEMENT_SET_NO": 999,
    "REV_AT_EPOCH": 215,
    "BSTAR": -0.0043968,
    "MEAN_MOTION_DOT": -0.01171732,
    "MEAN_MOTION_DDOT": 0
  },
  {
    "OBJECT_NAME": "STARLINK-31226",
    "OBJECT_ID": "2024-019F",
    "EPOCH": "2024-02-05T06:00:00.999648",
    "MEAN_MOTION": 15.82875091,
    "ECCENTRICITY": 0.0001711,
    "INCLINATION": 43.0057,
    "RA_OF_ASC_NODE": 237.959,
    "ARG_OF_PERICENTER": 267.5718,
    "MEAN_ANOMALY": 101.7484,
    "EPHEMERIS_TYPE": 0,
    "CLASSIFICATION_TYPE": "U",
    "NORAD_CAT_ID": 58858,
    "ELEMENT_SET_NO": 999,
    "REV_AT_EPOCH": 235,
    "BSTAR": -0.0058701,
    "MEAN_MOTION_DOT": -0.01151045,
    "MEAN_MOTION_DDOT": 0
  },
  {
    "OBJECT_NAME": "STARLINK-31197",
    "OBJECT_ID": "2024-019G",
    "EPOCH": "2024-02-05T06:00:00.999648",
    "MEAN_MOTION": 15.82878791,
    "ECCENTRICITY": 0.0001831,
    "INCLINATION": 43.0055,
    "RA_OF_ASC_NODE": 237.9552,
    "ARG_OF_PERICENTER": 274.6803,
    "MEAN_ANOMALY": 96.1547,
    "EPHEMERIS_TYPE": 0,
    "CLASSIFICATION_TYPE": "U",
    "NORAD_CAT_ID": 58859,
    "ELEMENT_SET_NO": 999,
    "REV_AT_EPOCH": 235,
    "BSTAR": -0.0059259,
    "MEAN_MOTION_DOT": -0.01161073,
    "MEAN_MOTION_DDOT": 0
  }
]