STARLINK-31273          
1 58846U 24017W   24036.25001157 -.01638579  00000+0 -13937-1 0  9995
2 58846  53.1594 159.9406 0001303  35.6644  62.2944 15.71853181  3054
STARLINK-31262          
1 58847U 24017X   24036.25001157 -.01682529  00000+0 -14340-1 0  9999
2 58847  53.1587 159.9346 0001539  71.6019  28.9816 15.71883664  3053
AAC-AIS-SAT3            
1 58848U 23174DH  24035.89680431  .00006829  00000+0  47026-3 0  9999
2 58848  97.4502 111.5074 0014329 107.9773 252.3017 15.06093701 13460
2024-018A               
1 58849U 24018A   24036.14245981  .00001433  00000+0  18569-3 0  9990
2 58849  58.6909 359.6142 0458096 171.6033 189.3004 14.32749443  1171
2024-018B               
1 58850U 24018B   24036.29996616  .00002877  00000+0  34253-3 0  9997
2 58850  58.7039 359.0449 0455350 172.2488 301.5777 14.33429291  1186
2024-018C               
1 58851U 24018C   24036.13532096  .00001024  00000+0  14002-3 0  9992
2 58851  58.6880 359.5836 0452241 171.5147 189.3867 14.33999873  1174
2024-018D               
1 58852U 24018D   24036.30393350  .00005873  00000+0  66666-3 0  9999
2 58852  58.6790 359.0027 0453646 171.2891 336.3892 14.33906537  1194
STARLINK-31238          
1 58853U 24019A   24036.25001157 -.01069486  00000+0 -55225-2 0  9997
2 58853  43.0060 237.9794 0001767 262.7751  98.5243 15.82845785  2035
STARLINK-31158          
1 58854U 24019B   24036.25001157 -.01113765  00000+0 -56626-2 0  9994
2 58854  43.0055 237.9710 0001860 262.7129 101.8932 15.82858141  2146
STARLINK-31237          
1 58855U 24019C   24036.25001157 -.01101077  00000+0 -55930-2 0  9995
2 58855  43.0056 237.9751 0001747 267.8735  95.1323 15.82851456  2248
STARLINK-31244          
1 58856U 24019D   24035.91667824 -.01056381  00000+0 -52524-2 0  9990
2 58856  43.0056 240.0164 0001345 273.5371 350.3373 15.83606279  2159
STARLINK-31216          
1 58857U 24019E   24035.91667824 -.01171732  00000+0 -43968-2 0  9991
2 58857  43.0052 239.8439 0001812 274.1148  58.4381 15.89547312  2158
STARLINK-31226          
1 58858U 24019F   24036.25001157 -.01151045  00000+0 -58701-2 0  9997
2 58858  43.0057 237.9590 0001711 267.5718 101.7484 15.82875091  2357
STARLINK-31197          
1 58859U 24019G   24036.25001157 -.01161073  00000+0 -59259-2 0  9999
2 58859  43.0055 237.9552 0001831 274.6803  96.1547 15.82878791  2358
